[{"OBJECT_NAME":"LAPAN-A3","OBJECT_ID":"2016-040E","EPOCH":"2026-03-09T23:01:57.724896","MEAN_MOTION":15.3238951,"ECCENTRICITY":0.00109839,"INCLINATION":97.1488,"RA_OF_ASC_NODE":68.4254,"ARG_OF_PERICENTER":22.062,"MEAN_ANOMALY":338.1093,"EPHEMERIS_TYPE":0,"CLASSIFICATION_TYPE":"U","NORAD_CAT_ID":41603,"ELEMENT_SET_NO":999,"REV_AT_EPOCH":53961,"BSTAR":0.00017567445,"MEAN_MOTION_DOT":5.428e-5,"MEAN_MOTION_DDOT":0},{"OBJECT_NAME":"STARLINK-32461","OBJECT_ID":"2024-195Q","EPOCH":"2026-03-09T12:07:18.702912","MEAN_MOTION":15.30188031,"ECCENTRICITY":0.0001184,"INCLINATION":53.1612,"RA_OF_ASC_NODE":156.184,"ARG_OF_PERICENTER":89.5143,"MEAN_ANOMALY":270.5993,"EPHEMERIS_TYPE":0,"CLASSIFICATION_TYPE":"U","NORAD_CAT_ID":61701,"ELEMENT_SET_NO":999,"REV_AT_EPOCH":7715,"BSTAR":3.2239059e-5,"MEAN_MOTION_DOT":5.95e-6,"MEAN_MOTION_DDOT":0}]
